[{"OBJECT_NAME":"STARLINK-34933","OBJECT_ID":"2025-179U","EPOCH":"2026-03-09T16:18:19.188864","MEAN_MOTION":15.05661498,"ECCENTRICITY":8.946e-5,"INCLINATION":97.603,"RA_OF_ASC_NODE":112.9057,"ARG_OF_PERICENTER":125.2726,"MEAN_ANOMALY":234.8585,"EPHEMERIS_TYPE":0,"CLASSIFICATION_TYPE":"U","NORAD_CAT_ID":65253,"ELEMENT_SET_NO":999,"REV_AT_EPOCH":3181,"BSTAR":0.00098826717,"MEAN_MOTION_DOT":0.00014232,"MEAN_MOTION_DDOT":0},{"OBJECT_NAME":"OKEAN-3","OBJECT_ID":"1991-039A","EPOCH":"2026-03-09T19:29:17.530944","MEAN_MOTION":15.0480588,"ECCENTRICITY":0.00139411,"INCLINATION":82.519,"RA_OF_ASC_NODE":336.7249,"ARG_OF_PERICENTER":337.9296,"MEAN_ANOMALY":22.1329,"EPHEMERIS_TYPE":0,"CLASSIFICATION_TYPE":"U","NORAD_CAT_ID":21397,"ELEMENT_SET_NO":999,"REV_AT_EPOCH":86505,"BSTAR":0.00031884915,"MEAN_MOTION_DOT":4.536e-5,"MEAN_MOTION_DDOT":0}]
